COSMOS 2361             
1 25590U 98076A   13082.35086804  .00000071  00000-0  61105-4 0  2357
2 25590  82.9376 179.0730 0031098 220.8233 200.7118 13.72801455713697
COSMOS 2378             
1 26818U 01023A   13081.87674192  .00000086  00000-0  74950-4 0  3232
2 26818  82.9284 203.7008 0032745 182.7016 177.3966 13.73806384591070
COSMOS 2389             
1 27436U 02026A   13082.17841385  .00000081  00000-0  68397-4 0  9719
2 27436  82.9512 145.6442 0047611  67.7179 353.5348 13.74803805542891
COSMOS 2398             
1 27818U 03023A   13083.01499835  .00000029  00000-0  15511-4 0  8928
2 27818  82.9437  95.7124 0033058  56.4706 303.9604 13.72031292490903
COSMOS 2407             
1 28380U 04028A   13082.90655585  .00000072  00000-0  57448-4 0  7351
2 28380  82.9573  52.8028 0040960  85.5806 275.0026 13.75922649435364
COSMOS 2414             
1 28521U 05002A   13083.13247814  .00000048  00000-0  27303-4 0  8664
2 28521  82.9451  97.3969 0042056  65.7351 294.8193 13.87442258413880
COSMOS 2429             
1 32052U 07038A   13082.34913044 -.00000003  00000-0 -19906-4 0  6128
2 32052  82.9826 167.1959 0039951  51.7145 308.7594 13.74768898277505
COSMOS 2454             
1 35635U 09039A   13083.12938472  .00000048  00000-0  26324-4 0  4846
2 35635  82.9514  90.0321 0020847  46.2914 313.9977 13.89470532186348
COSMOS 2463             
1 36519U 10017A   13082.83070556  .00000043  00000-0  31177-4 0  4929
2 36519  82.9610 199.7320 0035318 215.8519 144.0259 13.71308150145525
